IRIDIUM 57 [-]          
1 25273U 98019B   24038.90401900  .00000681  00000+0  23195-3 0  9993
2 25273  86.4000 352.6764 0002152  85.3519 274.7923 14.35072976353732
IRIDIUM 63 [-]          
1 25286U 98021B   24038.76693562  .00000601  00000+0  20182-3 0  9996
2 25286  86.3974 289.6655 0002265  85.1296 275.0159 14.35596195352747
IRIDIUM 69 [-]          
1 25319U 98026A   24038.79947596  .00000673  00000+0  20854-3 0  9995
2 25319  86.3995 304.4293 0001834 154.7827 205.3462 14.39789535351754
IRIDIUM 71 [-]          
1 25320U 98026B   24039.17595551  .00000678  00000+0  20857-3 0  9998
2 25320  86.3980 299.0621 0000502   2.8338 357.2864 14.40110729352574
IRIDIUM 73 [-]          
1 25344U 98032C   24038.84193511  .00000829  00000+0  20781-3 0  9998
2 25344  86.4386 256.8092 0001714 103.8837 256.2558 14.50279634358730
IRIDIUM 82 [-]          
1 25467U 98051A   24038.90486781  .00024186  00000+0  13271-2 0  9993
2 25467  86.3946 347.3148 0137322 339.1041  20.4611 15.06210167348852
IRIDIUM 2 [-]           
1 25527U 98066A   24038.93062373  .00068840  00000+0  10693-2 0  9996
2 25527  85.5130  26.5977 0008226  99.8246 260.3943 15.53668372387514
